ONEWEB-0668             
1 56711U 23068B   25123.07305987  .00000008  00000+0 -13443-4 0  9998
2 56711  87.9006 310.5019 0002126 104.3233 255.8134 13.16594641 98519
ONEWEB-0676             
1 56712U 23068C   25123.05325299  .00000101  00000+0  22983-3 0  9996
2 56712  87.9017 310.5353 0001875  75.2008 284.9331 13.16593681 98435
ONEWEB-0677             
1 56713U 23068D   25123.19098244  .00000042  00000+0  71973-4 0  9997
2 56713  87.9289 356.0820 0002057  79.5729 280.5636 13.20772320 96387
ONEWEB-0678             
1 56714U 23068E   25123.13493258  .00000138  00000+0  33207-3 0  9999
2 56714  87.9076 340.9027 0001476  77.8926 282.2370 13.15548099 96075
ONEWEB-0679             
1 56715U 23068F   25123.02236625 -.00000151  00000+0 -42865-3 0  9998
2 56715  87.9010 310.5349 0002322  90.3339 269.8058 13.16593299 98454
ONEWEB-0680             
1 56716U 23068G   25123.12554161  .00000135  00000+0  29610-3 0  9991
2 56716  87.9233 325.7581 0002325 100.8960 259.2436 13.21826807 97629
ONEWEB-0681             
1 56717U 23068H   25123.06009621  .00000036  00000+0  54662-4 0  9997
2 56717  87.9253 325.7874 0002519  69.5208 290.6196 13.21826248 97607
ONEWEB-0682             
1 56718U 23068J   25123.08501889 -.00000070  00000+0 -21941-3 0  9996
2 56718  87.9071 340.9448 0002228  93.0965 267.0420 13.15548189 96235
